CCSDS_OMM_VERS = 2.0
CREATION_DATE  = 
ORIGINATOR     = 

OBJECT_NAME    = UNKNOWN
OBJECT_ID      = 
CENTER_NAME    = EARTH
REF_FRAME      = TEME
TIME_SYSTEM    = UTC
MEAN_ELEMENT_THEORY = SGP/SGP4

EPOCH          = 2026-01-20T20:19:31.958688
MEAN_MOTION    = 13.73733405
ECCENTRICITY   = .0033216
INCLINATION    = 82.9182
RA_OF_ASC_NODE = 240.1233
ARG_OF_PERICENTER = 35.5386
MEAN_ANOMALY   = 324.7972

EPHEMERIS_TYPE = 0
CLASSIFICATION_TYPE = U
NORAD_CAT_ID   = 89177
ELEMENT_SET_NO = 999
REV_AT_EPOCH   = 6819
BSTAR          = .11791E-3
MEAN_MOTION_DOT = .126E-5
MEAN_MOTION_DDOT = 0

CCSDS_OMM_VERS = 2.0
CREATION_DATE  = 
ORIGINATOR     = 

OBJECT_NAME    = UNKNOWN
OBJECT_ID      = 
CENTER_NAME    = EARTH
REF_FRAME      = TEME
TIME_SYSTEM    = UTC
MEAN_ELEMENT_THEORY = SGP/SGP4

EPOCH          = 2026-01-19T23:57:14.939712
MEAN_MOTION    = 13.81629803
ECCENTRICITY   = .013141
INCLINATION    = 99.2197
RA_OF_ASC_NODE = 295.2037
ARG_OF_PERICENTER = 54.7912
MEAN_ANOMALY   = 306.5463

EPHEMERIS_TYPE = 0
CLASSIFICATION_TYPE = U
NORAD_CAT_ID   = 89183
ELEMENT_SET_NO = 999
REV_AT_EPOCH   = 61225
BSTAR          = .69633E-3
MEAN_MOTION_DOT = .751E-5
MEAN_MOTION_DDOT = 0

CCSDS_OMM_VERS = 2.0
CREATION_DATE  = 
ORIGINATOR     = 

OBJECT_NAME    = UNKNOWN
OBJECT_ID      = 
CENTER_NAME    = EARTH
REF_FRAME      = TEME
TIME_SYSTEM    = UTC
MEAN_ELEMENT_THEORY = SGP/SGP4

EPOCH          = 2026-01-20T08:48:58.446432
MEAN_MOTION    = 14.83184911
ECCENTRICITY   = .0011679
INCLINATION    = 98.3877
RA_OF_ASC_NODE = 251.9391
ARG_OF_PERICENTER = 7.1834
MEAN_ANOMALY   = 352.9544

EPHEMERIS_TYPE = 0
CLASSIFICATION_TYPE = U
NORAD_CAT_ID   = 89184
ELEMENT_SET_NO = 999
REV_AT_EPOCH   = 49789
BSTAR          = .68699E-2
MEAN_MOTION_DOT = .56531E-3
MEAN_MOTION_DDOT = 0

CCSDS_OMM_VERS = 2.0
CREATION_DATE  = 
ORIGINATOR     = 

OBJECT_NAME    = UNKNOWN
OBJECT_ID      = 
CENTER_NAME    = EARTH
REF_FRAME      = TEME
TIME_SYSTEM    = UTC
MEAN_ELEMENT_THEORY = SGP/SGP4

EPOCH          = 2026-01-21T02:26:23.110368
MEAN_MOTION    = 13.91642019
ECCENTRICITY   = .0228225
INCLINATION    = 98.7774
RA_OF_ASC_NODE = 257.1754
ARG_OF_PERICENTER = 18.6443
MEAN_ANOMALY   = 342.2910

EPHEMERIS_TYPE = 0
CLASSIFICATION_TYPE = U
NORAD_CAT_ID   = 89213
ELEMENT_SET_NO = 999
REV_AT_EPOCH   = 45814
BSTAR          = .86119E-3
MEAN_MOTION_DOT = .131E-4
MEAN_MOTION_DDOT = 0

CCSDS_OMM_VERS = 2.0
CREATION_DATE  = 
ORIGINATOR     = 

OBJECT_NAME    = UNKNOWN
OBJECT_ID      = 
CENTER_NAME    = EARTH
REF_FRAME      = TEME
TIME_SYSTEM    = UTC
MEAN_ELEMENT_THEORY = SGP/SGP4

EPOCH          = 2026-01-21T08:58:18.937056
MEAN_MOTION    = 9.25623867
ECCENTRICITY   = .2829493
INCLINATION    = 62.4784
RA_OF_ASC_NODE = 311.5933
ARG_OF_PERICENTER = 104.3314
MEAN_ANOMALY   = 288.4757

EPHEMERIS_TYPE = 0
CLASSIFICATION_TYPE = U
NORAD_CAT_ID   = 89251
ELEMENT_SET_NO = 999
REV_AT_EPOCH   = 37685
BSTAR          = .10191E-1
MEAN_MOTION_DOT = .17518E-3
MEAN_MOTION_DDOT = 0

CCSDS_OMM_VERS = 2.0
CREATION_DATE  = 
ORIGINATOR     = 

OBJECT_NAME    = UNKNOWN
OBJECT_ID      = 
CENTER_NAME    = EARTH
REF_FRAME      = TEME
TIME_SYSTEM    = UTC
MEAN_ELEMENT_THEORY = SGP/SGP4

EPOCH          = 2026-01-20T17:16:16.919328
MEAN_MOTION    = 14.43207903
ECCENTRICITY   = .0013815
INCLINATION    = 98.1566
RA_OF_ASC_NODE = 18.4666
ARG_OF_PERICENTER = 44.7985
MEAN_ANOMALY   = 315.4319

EPHEMERIS_TYPE = 0
CLASSIFICATION_TYPE = U
NORAD_CAT_ID   = 89261
ELEMENT_SET_NO = 999
REV_AT_EPOCH   = 53943
BSTAR          = .5111E-3
MEAN_MOTION_DOT = .1679E-4
MEAN_MOTION_DDOT = 0

CCSDS_OMM_VERS = 2.0
CREATION_DATE  = 
ORIGINATOR     = 

OBJECT_NAME    = UNKNOWN
OBJECT_ID      = 
CENTER_NAME    = EARTH
REF_FRAME      = TEME
TIME_SYSTEM    = UTC
MEAN_ELEMENT_THEORY = SGP/SGP4

EPOCH          = 2026-01-21T10:22:07.875840
MEAN_MOTION    = 9.06392869
ECCENTRICITY   = .2873537
INCLINATION    = 84.3205
RA_OF_ASC_NODE = 93.3949
ARG_OF_PERICENTER = 294.3080
MEAN_ANOMALY   = 54.7377

EPHEMERIS_TYPE = 0
CLASSIFICATION_TYPE = U
NORAD_CAT_ID   = 89304
ELEMENT_SET_NO = 999
REV_AT_EPOCH   = 44199
BSTAR          = .93108E-1
MEAN_MOTION_DOT = .101161E-2
MEAN_MOTION_DDOT = 0

CCSDS_OMM_VERS = 2.0
CREATION_DATE  = 
ORIGINATOR     = 

OBJECT_NAME    = UNKNOWN
OBJECT_ID      = 
CENTER_NAME    = EARTH
REF_FRAME      = TEME
TIME_SYSTEM    = UTC
MEAN_ELEMENT_THEORY = SGP/SGP4

EPOCH          = 2026-01-21T04:56:01.077792
MEAN_MOTION    = 12.96260465
ECCENTRICITY   = .0029786
INCLINATION    = 90.2453
RA_OF_ASC_NODE = 8.2269
ARG_OF_PERICENTER = 159.5060
MEAN_ANOMALY   = 200.7262

EPHEMERIS_TYPE = 0
CLASSIFICATION_TYPE = U
NORAD_CAT_ID   = 89349
ELEMENT_SET_NO = 999
REV_AT_EPOCH   = 48386
BSTAR          = -.77768E-4
MEAN_MOTION_DOT = -.15E-6
MEAN_MOTION_DDOT = 0

CCSDS_OMM_VERS = 2.0
CREATION_DATE  = 
ORIGINATOR     = 

OBJECT_NAME    = UNKNOWN
OBJECT_ID      = 
CENTER_NAME    = EARTH
REF_FRAME      = TEME
TIME_SYSTEM    = UTC
MEAN_ELEMENT_THEORY = SGP/SGP4

EPOCH          = 2026-01-20T18:24:13.021632
MEAN_MOTION    = 13.63070197
ECCENTRICITY   = .0039699
INCLINATION    = 100.4788
RA_OF_ASC_NODE = 43.9406
ARG_OF_PERICENTER = 29.3916
MEAN_ANOMALY   = 330.9444

EPHEMERIS_TYPE = 0
CLASSIFICATION_TYPE = U
NORAD_CAT_ID   = 89379
ELEMENT_SET_NO = 999
REV_AT_EPOCH   = 58609
BSTAR          = .93716E-2
MEAN_MOTION_DOT = .7344E-4
MEAN_MOTION_DDOT = 0

CCSDS_OMM_VERS = 2.0
CREATION_DATE  = 
ORIGINATOR     = 

OBJECT_NAME    = UNKNOWN
OBJECT_ID      = 
CENTER_NAME    = EARTH
REF_FRAME      = TEME
TIME_SYSTEM    = UTC
MEAN_ELEMENT_THEORY = SGP/SGP4

EPOCH          = 2026-01-18T20:31:59.077632
MEAN_MOTION    = 12.01508756
ECCENTRICITY   = .0224265
INCLINATION    = 102.3695
RA_OF_ASC_NODE = 350.0260
ARG_OF_PERICENTER = 61.7113
MEAN_ANOMALY   = 329.2355

EPHEMERIS_TYPE = 0
CLASSIFICATION_TYPE = U
NORAD_CAT_ID   = 89395
ELEMENT_SET_NO = 999
REV_AT_EPOCH   = 52920
BSTAR          = .14223E-2
MEAN_MOTION_DOT = .85E-6
MEAN_MOTION_DDOT = 0

CCSDS_OMM_VERS = 2.0
CREATION_DATE  = 
ORIGINATOR     = 

OBJECT_NAME    = UNKNOWN
OBJECT_ID      = 
CENTER_NAME    = EARTH
REF_FRAME      = TEME
TIME_SYSTEM    = UTC
MEAN_ELEMENT_THEORY = SGP/SGP4

EPOCH          = 2026-01-21T05:30:48.276288
MEAN_MOTION    = 12.98791199
ECCENTRICITY   = .0029582
INCLINATION    = 90.2475
RA_OF_ASC_NODE = 6.6928
ARG_OF_PERICENTER = 111.8313
MEAN_ANOMALY   = 262.1043

EPHEMERIS_TYPE = 0
CLASSIFICATION_TYPE = U
NORAD_CAT_ID   = 89403
ELEMENT_SET_NO = 999
REV_AT_EPOCH   = 48295
BSTAR          = .14144E-2
MEAN_MOTION_DOT = .427E-5
MEAN_MOTION_DDOT = 0

CCSDS_OMM_VERS = 2.0
CREATION_DATE  = 
ORIGINATOR     = 

OBJECT_NAME    = UNKNOWN
OBJECT_ID      = 
CENTER_NAME    = EARTH
REF_FRAME      = TEME
TIME_SYSTEM    = UTC
MEAN_ELEMENT_THEORY = SGP/SGP4

EPOCH          = 2026-01-19T08:24:52.854336
MEAN_MOTION    = 9.17400156
ECCENTRICITY   = .2865379
INCLINATION    = 83.9704
RA_OF_ASC_NODE = 143.8480
ARG_OF_PERICENTER = 336.6578
MEAN_ANOMALY   = 12.6153

EPHEMERIS_TYPE = 0
CLASSIFICATION_TYPE = U
NORAD_CAT_ID   = 89484
ELEMENT_SET_NO = 999
REV_AT_EPOCH   = 35888
BSTAR          = .33744E-1
MEAN_MOTION_DOT = .5428E-3
MEAN_MOTION_DDOT = 0

CCSDS_OMM_VERS = 2.0
CREATION_DATE  = 
ORIGINATOR     = 

OBJECT_NAME    = UNKNOWN
OBJECT_ID      = 
CENTER_NAME    = EARTH
REF_FRAME      = TEME
TIME_SYSTEM    = UTC
MEAN_ELEMENT_THEORY = SGP/SGP4

EPOCH          = 2026-01-14T03:34:39.222912
MEAN_MOTION    = 14.16451513
ECCENTRICITY   = .0080466
INCLINATION    = 99.0247
RA_OF_ASC_NODE = 88.4602
ARG_OF_PERICENTER = 307.0595
MEAN_ANOMALY   = 52.3239

EPHEMERIS_TYPE = 0
CLASSIFICATION_TYPE = U
NORAD_CAT_ID   = 89493
ELEMENT_SET_NO = 999
REV_AT_EPOCH   = 46853
BSTAR          = .89611E-3
MEAN_MOTION_DOT = .1793E-4
MEAN_MOTION_DDOT = 0

CCSDS_OMM_VERS = 2.0
CREATION_DATE  = 
ORIGINATOR     = 

OBJECT_NAME    = UNKNOWN
OBJECT_ID      = 
CENTER_NAME    = EARTH
REF_FRAME      = TEME
TIME_SYSTEM    = UTC
MEAN_ELEMENT_THEORY = SGP/SGP4

EPOCH          = 2026-01-19T15:27:47.094048
MEAN_MOTION    = 14.16409002
ECCENTRICITY   = .0081237
INCLINATION    = 99.0225
RA_OF_ASC_NODE = 93.9099
ARG_OF_PERICENTER = 291.4777
MEAN_ANOMALY   = 67.7748

EPHEMERIS_TYPE = 0
CLASSIFICATION_TYPE = U
NORAD_CAT_ID   = 89494
ELEMENT_SET_NO = 999
REV_AT_EPOCH   = 46916
BSTAR          = .12834E-2
MEAN_MOTION_DOT = .2588E-4
MEAN_MOTION_DDOT = 0

CCSDS_OMM_VERS = 2.0
CREATION_DATE  = 
ORIGINATOR     = 

OBJECT_NAME    = UNKNOWN
OBJECT_ID      = 
CENTER_NAME    = EARTH
REF_FRAME      = TEME
TIME_SYSTEM    = UTC
MEAN_ELEMENT_THEORY = SGP/SGP4

EPOCH          = 2026-01-18T14:28:53.926752
MEAN_MOTION    = 12.96116481
ECCENTRICITY   = .0030461
INCLINATION    = 90.2296
RA_OF_ASC_NODE = 344.6841
ARG_OF_PERICENTER = 147.9928
MEAN_ANOMALY   = 212.3050

EPHEMERIS_TYPE = 0
CLASSIFICATION_TYPE = U
NORAD_CAT_ID   = 270000
ELEMENT_SET_NO = 999
REV_AT_EPOCH   = 29071
BSTAR          = .57517177E-3
MEAN_MOTION_DOT = .172E-5
MEAN_MOTION_DDOT = 0

CCSDS_OMM_VERS = 2.0
CREATION_DATE  = 
ORIGINATOR     = 

OBJECT_NAME    = UNKNOWN
OBJECT_ID      = 
CENTER_NAME    = EARTH
REF_FRAME      = TEME
TIME_SYSTEM    = UTC
MEAN_ELEMENT_THEORY = SGP/SGP4

EPOCH          = 2026-01-20T14:22:26.002848
MEAN_MOTION    = 12.45691791
ECCENTRICITY   = .00445071
INCLINATION    = 101.8189
RA_OF_ASC_NODE = 133.0754
ARG_OF_PERICENTER = 143.1954
MEAN_ANOMALY   = 217.2183

EPHEMERIS_TYPE = 0
CLASSIFICATION_TYPE = U
NORAD_CAT_ID   = 270001
ELEMENT_SET_NO = 999
REV_AT_EPOCH   = 27977
BSTAR          = .8798008E-3
MEAN_MOTION_DOT = .83E-6
MEAN_MOTION_DDOT = 0

